STARLINK-33619          
1 63324U 25057T   26068.30441643  .00025210  00000+0  92208-3 0  9997
2 63324  43.0033  32.5765 0001968 250.6607 109.4032 15.27594350 55720
2025-313BC              
1 67298U 25313BC  26068.18968176  .00075331  00000+0  26410-2 0  9997
2 67298  97.3985 144.8110 0008478 328.9209  31.1528 15.29126358  7890
